STARLINK-34263          
1 64164U 25112U   25341.08963741  .00010703  00000+0  74453-3 0  9991
2 64164  97.6033  30.2271 0000957  88.3983 271.7353 15.05667118 29375
STARLINK-33793          
1 64165U 25112V   25341.08133190  .00006832  00000+0  47717-3 0  9990
2 64165  97.6045  30.2390 0000829 101.6252 258.5067 15.05655609 29374
STARLINK-34313          
1 64166U 25112W   25341.07302659  .00010438  00000+0  72639-3 0  9996
2 64166  97.6042  30.2514 0000740  94.1125 266.0186 15.05659892 29371
STARLINK-34309          
1 64167U 25112X   25341.13118263  .00010262  00000+0  71425-3 0  9997
2 64167  97.6045  30.3285 0001499  93.2402 266.8996 15.05658443 29380
STARLINK-34303          
1 64168U 25112Y   25341.12287576  .00009595  00000+0  66811-3 0  9991
2 64168  97.6039  30.3394 0001223  86.7517 273.3850 15.05659216 29385
STARLINK-34175          
1 64169U 25112Z   25341.03979118  .00011573  00000+0  80474-3 0  9992
2 64169  97.6026  30.1376 0000779 103.0825 257.0489 15.05659516 29368
STARLINK-34177          
1 64170U 25113A   25340.92276793  .00033428  00000+0  11352-2 0  9992
2 64170  53.1584 161.9221 0000966  89.7972 270.3140 15.30214134 30869
STARLINK-34228          
1 64171U 25113B   25341.23034660  .00035488  00000+0  12039-2 0  9994
2 64171  53.1598 160.2837 0001580  81.8031 278.3149 15.30219290 30913
STARLINK-34233          
1 64172U 25113C   25341.19774381  .00029084  00000+0  98967-3 0  9991
2 64172  53.1565 160.7904 0000912  84.3044 275.8061 15.30218832 30903
STARLINK-34172          
1 64173U 25113D   25341.23140240  .00041260  00000+0  13973-2 0  9991
2 64173  53.1585 160.2881 0001332  79.7343 280.3808 15.30205114 30877
STARLINK-34202          
1 64174U 25113E   25340.92911320  .00061791  00000+0  20777-2 0  9993
2 64174  53.1575 161.9614 0001136  99.8427 260.2702 15.30252375 30867
STARLINK-34231          
1 64175U 25113F   25341.20618608  .00047049  00000+0  15902-2 0  9993
2 64175  53.1563 160.8407 0000955  77.7600 282.3507 15.30208039 30900
STARLINK-34191          
1 64176U 25113G   25341.21768250  .00032718  00000+0  11113-2 0  9991
2 64176  53.1583 160.1995 0001497  88.1877 271.9295 15.30217194 30913
STARLINK-34164          
1 64177U 25113H   25341.21357526  .00036908  00000+0  12520-2 0  9990
2 64177  53.1574 160.8891 0001610  86.8427 273.2758 15.30202004 30901
STARLINK-34227          
1 64178U 25113J   25340.80163536  .00058282  00000+0  19644-2 0  9994
2 64178  53.1573 162.5810 0001056  75.4198 284.6920 15.30201697 30841
STARLINK-34194          
1 64179U 25113K   25341.22295917  .00035641  00000+0  12096-2 0  9999
2 64179  53.1609 160.2376 0001339  75.0313 285.0836 15.30203438 30917
