[{"OBJECT_NAME":"STARLINK-34263","OBJECT_ID":"2025-112U","EPOCH":"2025-12-07T02:09:04.672224","MEAN_MOTION":15.05667118,"ECCENTRICITY":9.578e-5,"INCLINATION":97.6033,"RA_OF_ASC_NODE":30.2271,"ARG_OF_PERICENTER":88.3983,"MEAN_ANOMALY":271.7353,"EPHEMERIS_TYPE":0,"CLASSIFICATION_TYPE":"U","NORAD_CAT_ID":64164,"ELEMENT_SET_NO":999,"REV_AT_EPOCH":2937,"BSTAR":0.00074453013,"MEAN_MOTION_DOT":0.00010703,"MEAN_MOTION_DDOT":0},{"OBJECT_NAME":"STARLINK-33793","OBJECT_ID":"2025-112V","EPOCH":"2025-12-07T01:57:07.076160","MEAN_MOTION":15.05655609,"ECCENTRICITY":8.297e-5,"INCLINATION":97.6045,"RA_OF_ASC_NODE":30.239,"ARG_OF_PERICENTER":101.6252,"MEAN_ANOMALY":258.5067,"EPHEMERIS_TYPE":0,"CLASSIFICATION_TYPE":"U","NORAD_CAT_ID":64165,"ELEMENT_SET_NO":999,"REV_AT_EPOCH":2937,"BSTAR":0.00047717272,"MEAN_MOTION_DOT":6.832e-5,"MEAN_MOTION_DDOT":0},{"OBJECT_NAME":"STARLINK-34313","OBJECT_ID":"2025-112W","EPOCH":"2025-12-07T01:45:09.497376","MEAN_MOTION":15.05659892,"ECCENTRICITY":7.405e-5,"INCLINATION":97.6042,"RA_OF_ASC_NODE":30.2514,"ARG_OF_PERICENTER":94.1125,"MEAN_ANOMALY":266.0186,"EPHEMERIS_TYPE":0,"CLASSIFICATION_TYPE":"U","NORAD_CAT_ID":64166,"ELEMENT_SET_NO":999,"REV_AT_EPOCH":2937,"BSTAR":0.00072638788,"MEAN_MOTION_DOT":0.00010438,"MEAN_MOTION_DDOT":0},{"OBJECT_NAME":"STARLINK-34309","OBJECT_ID":"2025-112X","EPOCH":"2025-12-07T03:08:54.179232","MEAN_MOTION":15.05658443,"ECCENTRICITY":0.00014999,"INCLINATION":97.6045,"RA_OF_ASC_NODE":30.3285,"ARG_OF_PERICENTER":93.2402,"MEAN_ANOMALY":266.8996,"EPHEMERIS_TYPE":0,"CLASSIFICATION_TYPE":"U","NORAD_CAT_ID":64167,"ELEMENT_SET_NO":999,"REV_AT_EPOCH":2938,"BSTAR":0.0007142466,"MEAN_MOTION_DOT":0.00010262,"MEAN_MOTION_DDOT":0},{"OBJECT_NAME":"STARLINK-34303","OBJECT_ID":"2025-112Y","EPOCH":"2025-12-07T02:56:56.465664","MEAN_MOTION":15.05659216,"ECCENTRICITY":0.0001223,"INCLINATION":97.6039,"RA_OF_ASC_NODE":30.3394,"ARG_OF_PERICENTER":86.7517,"MEAN_ANOMALY":273.385,"EPHEMERIS_TYPE":0,"CLASSIFICATION_TYPE":"U","NORAD_CAT_ID":64168,"ELEMENT_SET_NO":999,"REV_AT_EPOCH":2938,"BSTAR":0.00066810922,"MEAN_MOTION_DOT":9.595e-5,"MEAN_MOTION_DDOT":0},{"OBJECT_NAME":"STARLINK-34175","OBJECT_ID":"2025-112Z","EPOCH":"2025-12-07T00:57:17.957952","MEAN_MOTION":15.05659516,"ECCENTRICITY":7.795e-5,"INCLINATION":97.6026,"RA_OF_ASC_NODE":30.1376,"ARG_OF_PERICENTER":103.0825,"MEAN_ANOMALY":257.0489,"EPHEMERIS_TYPE":0,"CLASSIFICATION_TYPE":"U","NORAD_CAT_ID":64169,"ELEMENT_SET_NO":999,"REV_AT_EPOCH":2936,"BSTAR":0.00080473521,"MEAN_MOTION_DOT":0.00011573,"MEAN_MOTION_DDOT":0},{"OBJECT_NAME":"STARLINK-34177","OBJECT_ID":"2025-113A","EPOCH":"2025-12-06T22:08:47.149152","MEAN_MOTION":15.30214134,"ECCENTRICITY":9.668e-5,"INCLINATION":53.1584,"RA_OF_ASC_NODE":161.9221,"ARG_OF_PERICENTER":89.7972,"MEAN_ANOMALY":270.314,"EPHEMERIS_TYPE":0,"CLASSIFICATION_TYPE":"U","NORAD_CAT_ID":64170,"ELEMENT_SET_NO":999,"REV_AT_EPOCH":3086,"BSTAR":0.0011351888,"MEAN_MOTION_DOT":0.00033428,"MEAN_MOTION_DDOT":0},{"OBJECT_NAME":"STARLINK-34228","OBJECT_ID":"2025-113B","EPOCH":"2025-12-07T05:31:41.946240","MEAN_MOTION":15.3021929,"ECCENTRICITY":0.00015806,"INCLINATION":53.1598,"RA_OF_ASC_NODE":160.2837,"ARG_OF_PERICENTER":81.8031,"MEAN_ANOMALY":278.3149,"EPHEMERIS_TYPE":0,"CLASSIFICATION_TYPE":"U","NORAD_CAT_ID":64171,"ELEMENT_SET_NO":999,"REV_AT_EPOCH":3091,"BSTAR":0.0012038767,"MEAN_MOTION_DOT":0.00035488,"MEAN_MOTION_DDOT":0},{"OBJECT_NAME":"STARLINK-34233","OBJECT_ID":"2025-113C","EPOCH":"2025-12-07T04:44:45.065184","MEAN_MOTION":15.30218832,"ECCENTRICITY":9.123e-5,"INCLINATION":53.1565,"RA_OF_ASC_NODE":160.7904,"ARG_OF_PERICENTER":84.3044,"MEAN_ANOMALY":275.8061,"EPHEMERIS_TYPE":0,"CLASSIFICATION_TYPE":"U","NORAD_CAT_ID":64172,"ELEMENT_SET_NO":999,"REV_AT_EPOCH":3090,"BSTAR":0.00098967221,"MEAN_MOTION_DOT":0.00029084,"MEAN_MOTION_DDOT":0},{"OBJECT_NAME":"STARLINK-34172","OBJECT_ID":"2025-113D","EPOCH":"2025-12-07T05:33:13.167360","MEAN_MOTION":15.30205114,"ECCENTRICITY":0.00013324,"INCLINATION":53.1585,"RA_OF_ASC_NODE":160.2881,"ARG_OF_PERICENTER":79.7343,"MEAN_ANOMALY":280.3808,"EPHEMERIS_TYPE":0,"CLASSIFICATION_TYPE":"U","NORAD_CAT_ID":64173,"ELEMENT_SET_NO":999,"REV_AT_EPOCH":3087,"BSTAR":0.0013972651,"MEAN_MOTION_DOT":0.0004126,"MEAN_MOTION_DDOT":0},{"OBJECT_NAME":"STARLINK-34202","OBJECT_ID":"2025-113E","EPOCH":"2025-12-06T22:17:55.380480","MEAN_MOTION":15.30252375,"ECCENTRICITY":0.00011364,"INCLINATION":53.1575,"RA_OF_ASC_NODE":161.9614,"ARG_OF_PERICENTER":99.8427,"MEAN_ANOMALY":260.2702,"EPHEMERIS_TYPE":0,"CLASSIFICATION_TYPE":"U","NORAD_CAT_ID":64174,"ELEMENT_SET_NO":999,"REV_AT_EPOCH":3086,"BSTAR":0.0020777449,"MEAN_MOTION_DOT":0.00061791,"MEAN_MOTION_DDOT":0},{"OBJECT_NAME":"STARLINK-34231","OBJECT_ID":"2025-113F","EPOCH":"2025-12-07T04:56:54.477312","MEAN_MOTION":15.30208039,"ECCENTRICITY":9.552e-5,"INCLINATION":53.1563,"RA_OF_ASC_NODE":160.8407,"ARG_OF_PERICENTER":77.76,"MEAN_ANOMALY":282.3507,"EPHEMERIS_TYPE":0,"CLASSIFICATION_TYPE":"U","NORAD_CAT_ID":64175,"ELEMENT_SET_NO":999,"REV_AT_EPOCH":3090,"BSTAR":0.0015902383,"MEAN_MOTION_DOT":0.00047049,"MEAN_MOTION_DDOT":0},{"OBJECT_NAME":"STARLINK-34191","OBJECT_ID":"2025-113G","EPOCH":"2025-12-07T05:13:27.768000","MEAN_MOTION":15.30217194,"ECCENTRICITY":0.00014972,"INCLINATION":53.1583,"RA_OF_ASC_NODE":160.1995,"ARG_OF_PERICENTER":88.1877,"MEAN_ANOMALY":271.9295,"EPHEMERIS_TYPE":0,"CLASSIFICATION_TYPE":"U","NORAD_CAT_ID":64176,"ELEMENT_SET_NO":999,"REV_AT_EPOCH":3091,"BSTAR":0.0011113225,"MEAN_MOTION_DOT":0.00032718,"MEAN_MOTION_DDOT":0},{"OBJECT_NAME":"STARLINK-34164","OBJECT_ID":"2025-113H","EPOCH":"2025-12-07T05:07:32.902464","MEAN_MOTION":15.30202004,"ECCENTRICITY":0.000161,"INCLINATION":53.1574,"RA_OF_ASC_NODE":160.8891,"ARG_OF_PERICENTER":86.8427,"MEAN_ANOMALY":273.2758,"EPHEMERIS_TYPE":0,"CLASSIFICATION_TYPE":"U","NORAD_CAT_ID":64177,"ELEMENT_SET_NO":999,"REV_AT_EPOCH":3090,"BSTAR":0.001251982,"MEAN_MOTION_DOT":0.00036908,"MEAN_MOTION_DDOT":0},{"OBJECT_NAME":"STARLINK-34227","OBJECT_ID":"2025-113J","EPOCH":"2025-12-06T19:14:21.295104","MEAN_MOTION":15.30201697,"ECCENTRICITY":0.00010566,"INCLINATION":53.1573,"RA_OF_ASC_NODE":162.581,"ARG_OF_PERICENTER":75.4198,"MEAN_ANOMALY":284.692,"EPHEMERIS_TYPE":0,"CLASSIFICATION_TYPE":"U","NORAD_CAT_ID":64178,"ELEMENT_SET_NO":999,"REV_AT_EPOCH":3084,"BSTAR":0.0019644154,"MEAN_MOTION_DOT":0.00058282,"MEAN_MOTION_DDOT":0},{"OBJECT_NAME":"STARLINK-34194","OBJECT_ID":"2025-113K","EPOCH":"2025-12-07T05:21:03.672288","MEAN_MOTION":15.30203438,"ECCENTRICITY":0.00013392,"INCLINATION":53.1609,"RA_OF_ASC_NODE":160.2376,"ARG_OF_PERICENTER":75.0313,"MEAN_ANOMALY":285.0836,"EPHEMERIS_TYPE":0,"CLASSIFICATION_TYPE":"U","NORAD_CAT_ID":64179,"ELEMENT_SET_NO":999,"REV_AT_EPOCH":3091,"BSTAR":0.0012095752,"MEAN_MOTION_DOT":0.00035641,"MEAN_MOTION_DDOT":0}]
